{
  "type": "FeatureCollection",
  "features": [
    {
      "type": "Feature",
      "properties": {
        "norad_id": 32207,
        "name": "FENGYUN 1C DEB",
        "group": "fengyun-1c-debris",
        "lat": -65.49190763926309,
        "lon": -29.487941169749497,
        "alt_km": 824.5467150899058,
        "timestamp": "2025-12-14T20:40:32.057533+00:00",
        "meta_object_name": "FENGYUN 1C DEB",
        "meta_object_id": "1999-025CVD",
        "meta_epoch": "2025-12-12T04:00:31.760928",
        "meta_mean_motion": 14.39569701,
        "meta_eccentricity": 0.00852472,
        "meta_inclination": 99.8553,
        "meta_ra_of_asc_node": 305.0027,
        "meta_arg_of_pericenter": 139.3042,
        "meta_mean_anomaly": 236.8167,
        "meta_ephemeris_type": 0,
        "meta_classification_type": "U",
        "meta_norad_cat_id": 32207,
        "meta_element_set_no": 999,
        "meta_rev_at_epoch": 64299,
        "meta_bstar": 0.00048704631,
        "meta_mean_motion_dot": 1.529e-05,
        "meta_mean_motion_ddot": 0,
        "tle_line1": "1 32207U 99025CVD 25346.16703427  .00001529  00000+0  48705-3 0  9992",
        "tle_line2": "2 32207  99.8553 305.0027 0085247 139.3042 236.8167 14.39569701642998"
      },
      "geometry": {
        "type": "Point",
        "coordinates": [
          -29.487941169749497,
          -65.49190763926309
        ]
      }
    },
    {
      "type": "Feature",
      "properties": {
        "norad_id": 32209,
        "name": "FENGYUN 1C DEB",
        "group": "fengyun-1c-debris",
        "lat": -0.9818538825882855,
        "lon": 115.99586238450253,
        "alt_km": 1319.56746326523,
        "timestamp": "2025-12-14T20:40:32.057543+00:00",
        "meta_object_name": "FENGYUN 1C DEB",
        "meta_object_id": "1999-025CVF",
        "meta_epoch": "2025-12-13T02:47:56.046624",
        "meta_mean_motion": 13.47174829,
        "meta_eccentricity": 0.03331967,
        "meta_inclination": 99.4202,
        "meta_ra_of_asc_node": 294.5137,
        "meta_arg_of_pericenter": 24.3394,
        "meta_mean_anomaly": 337.3078,
        "meta_ephemeris_type": 0,
        "meta_classification_type": "U",
        "meta_norad_cat_id": 32209,
        "meta_element_set_no": 999,
        "meta_rev_at_epoch": 89981,
        "meta_bstar": 0.0038477572,
        "meta_mean_motion_dot": 3.245e-05,
        "meta_mean_motion_ddot": 0,
        "tle_line1": "1 32209U 99025CVF 25347.11662091  .00003245  00000+0  38478-2 0  9993",
        "tle_line2": "2 32209  99.4202 294.5137 0333196  24.3394 337.3078 13.47174829899817"
      },
      "geometry": {
        "type": "Point",
        "coordinates": [
          115.99586238450253,
          -0.9818538825882855
        ]
      }
    },
    {
      "type": "Feature",
      "properties": {
        "norad_id": 32212,
        "name": "FENGYUN 1C DEB",
        "group": "fengyun-1c-debris",
        "lat": -0.7789574852026568,
        "lon": 85.93405887408308,
        "alt_km": 730.5000392142047,
        "timestamp": "2025-12-14T20:40:32.057553+00:00",
        "meta_object_name": "FENGYUN 1C DEB",
        "meta_object_id": "1999-025CVJ",
        "meta_epoch": "2025-12-13T13:03:12.521952",
        "meta_mean_motion": 14.40326974,
        "meta_eccentricity": 0.01379135,
        "meta_inclination": 99.5724,
        "meta_ra_of_asc_node": 84.3302,
        "meta_arg_of_pericenter": 76.2079,
        "meta_mean_anomaly": 296.5113,
        "meta_ephemeris_type": 0,
        "meta_classification_type": "U",
        "meta_norad_cat_id": 32212,
        "meta_element_set_no": 999,
        "meta_rev_at_epoch": 96073,
        "meta_bstar": 0.00063950503,
        "meta_mean_motion_dot": 2.211e-05,
        "meta_mean_motion_ddot": 0,
        "tle_line1": "1 32212U 99025CVJ 25347.54389493  .00002211  00000+0  63951-3 0  9993",
        "tle_line2": "2 32212  99.5724  84.3302 0137913  76.2079 296.5113 14.40326974960735"
      },
      "geometry": {
        "type": "Point",
        "coordinates": [
          85.93405887408308,
          -0.7789574852026568
        ]
      }
    },
    {
      "type": "Feature",
      "properties": {
        "norad_id": 32214,
        "name": "FENGYUN 1C DEB",
        "group": "fengyun-1c-debris",
        "lat": 5.464946085459036,
        "lon": -164.70456833855513,
        "alt_km": 1034.5290900288337,
        "timestamp": "2025-12-14T20:40:32.057564+00:00",
        "meta_object_name": "FENGYUN 1C DEB",
        "meta_object_id": "1999-025CVL",
        "meta_epoch": "2025-12-13T20:31:12.775008",
        "meta_mean_motion": 13.90553619,
        "meta_eccentricity": 0.01883237,
        "meta_inclination": 99.0447,
        "meta_ra_of_asc_node": 13.4424,
        "meta_arg_of_pericenter": 36.1609,
        "meta_mean_anomaly": 141.1288,
        "meta_ephemeris_type": 0,
        "meta_classification_type": "U",
        "meta_norad_cat_id": 32214,
        "meta_element_set_no": 999,
        "meta_rev_at_epoch": 62437,
        "meta_bstar": 0.004789096,
        "meta_mean_motion_dot": 6.844e-05,
        "meta_mean_motion_ddot": 0,
        "tle_line1": "1 32214U 99025CVL 25347.85500897  .00006844  00000+0  47891-2 0  9992",
        "tle_line2": "2 32214  99.0447  13.4424 0188323  36.1609 141.1288 13.90553619624374"
      },
      "geometry": {
        "type": "Point",
        "coordinates": [
          -164.70456833855513,
          5.464946085459036
        ]
      }
    },
    {
      "type": "Feature",
      "properties": {
        "norad_id": 32218,
        "name": "FENGYUN 1C DEB",
        "group": "fengyun-1c-debris",
        "lat": 0.2792356554719411,
        "lon": 2.8839320704285547,
        "alt_km": 731.788118240177,
        "timestamp": "2025-12-14T20:40:32.057574+00:00",
        "meta_object_name": "FENGYUN 1C DEB",
        "meta_object_id": "1999-025CVQ",
        "meta_epoch": "2025-12-13T19:10:05.330784",
        "meta_mean_motion": 14.55497178,
        "meta_eccentricity": 0.00631785,
        "meta_inclination": 98.812,
        "meta_ra_of_asc_node": 181.7198,
        "meta_arg_of_pericenter": 64.3301,
        "meta_mean_anomaly": 308.9483,
        "meta_ephemeris_type": 0,
        "meta_classification_type": "U",
        "meta_norad_cat_id": 32218,
        "meta_element_set_no": 999,
        "meta_rev_at_epoch": 96248,
        "meta_bstar": 0.00098395321,
        "meta_mean_motion_dot": 4.348e-05,
        "meta_mean_motion_ddot": 0,
        "tle_line1": "1 32218U 99025CVQ 25347.79867281  .00004348  00000+0  98395-3 0  9995",
        "tle_line2": "2 32218  98.8120 181.7198 0063178  64.3301 308.9483 14.55497178962488"
      },
      "geometry": {
        "type": "Point",
        "coordinates": [
          2.8839320704285547,
          0.2792356554719411
        ]
      }
    },
    {
      "type": "Feature",
      "properties": {
        "norad_id": 32221,
        "name": "FENGYUN 1C DEB",
        "group": "fengyun-1c-debris",
        "lat": 81.41382291899706,
        "lon": 45.401577657625836,
        "alt_km": 620.4596142521841,
        "timestamp": "2025-12-14T20:40:32.057584+00:00",
        "meta_object_name": "FENGYUN 1C DEB",
        "meta_object_id": "1999-025CVT",
        "meta_epoch": "2025-12-14T05:26:42.111456",
        "meta_mean_motion": 14.5870682,
        "meta_eccentricity": 0.01468222,
        "meta_inclination": 98.5653,
        "meta_ra_of_asc_node": 138.1943,
        "meta_arg_of_pericenter": 141.175,
        "meta_mean_anomaly": 220.0107,
        "meta_ephemeris_type": 0,
        "meta_classification_type": "U",
        "meta_norad_cat_id": 32221,
        "meta_element_set_no": 999,
        "meta_rev_at_epoch": 97219,
        "meta_bstar": 0.00048484893,
        "meta_mean_motion_dot": 2.571e-05,
        "meta_mean_motion_ddot": 0,
        "tle_line1": "1 32221U 99025CVT 25348.22687629  .00002571  00000+0  48485-3 0  9995",
        "tle_line2": "2 32221  98.5653 138.1943 0146822 141.1750 220.0107 14.58706820972190"
      },
      "geometry": {
        "type": "Point",
        "coordinates": [
          45.401577657625836,
          81.41382291899706
        ]
      }
    },
    {
      "type": "Feature",
      "properties": {
        "norad_id": 32223,
        "name": "FENGYUN 1C DEB",
        "group": "fengyun-1c-debris",
        "lat": 51.16183232752697,
        "lon": 56.78237511015657,
        "alt_km": 823.6665364818209,
        "timestamp": "2025-12-14T20:40:32.057594+00:00",
        "meta_object_name": "FENGYUN 1C DEB",
        "meta_object_id": "1999-025CVV",
        "meta_epoch": "2025-12-13T23:18:00.552672",
        "meta_mean_motion": 14.20905079,
        "meta_eccentricity": 0.00468432,
        "meta_inclination": 98.839,
        "meta_ra_of_asc_node": 67.0353,
        "meta_arg_of_pericenter": 313.8611,
        "meta_mean_anomaly": 224.3875,
        "meta_ephemeris_type": 0,
        "meta_classification_type": "U",
        "meta_norad_cat_id": 32223,
        "meta_element_set_no": 999,
        "meta_rev_at_epoch": 64241,
        "meta_bstar": 0.0016444924,
        "meta_mean_motion_dot": 3.554e-05,
        "meta_mean_motion_ddot": 0,
        "tle_line1": "1 32223U 99025CVV 25347.97083973  .00003554  00000+0  16445-2 0  9992",
        "tle_line2": "2 32223  98.8390  67.0353 0046843 313.8611 224.3875 14.20905079642418"
      },
      "geometry": {
        "type": "Point",
        "coordinates": [
          56.78237511015657,
          51.16183232752697
        ]
      }
    }
  ]
}